SL-16 R/B               
1 22566U 93016B   26045.03234931 -.00000240  00000+0 -98501-4 0  9996
2 22566  71.0054 264.8717 0010550 346.4063  13.6774 14.15301998698824
COSMOS 2242             
1 22626U 93024A   26045.16652704  .00002051  00000+0  17806-3 0  9996
2 22626  82.5189 289.2171 0017206  29.1951 331.0229 14.96452011776874
SL-16 R/B               
1 22803U 93059B   26045.46739367 -.00000139  00000+0 -45054-4 0  9999
2 22803  70.9890  60.0984 0019432 248.5575 111.3476 14.17228055676245
ARIANE 40 R/B           
1 22830U 93061H   26045.16560030  .00000194  00000+0  86746-4 0  9990
2 22830  98.4968 114.5114 0010458   0.4039 359.7152 14.32848202690733
COSMOS 2278             
1 23087U 94023A   26045.47096598  .00000067  00000+0  59632-4 0  9994
2 23087  71.0503 223.6737 0006904  58.4135 301.7661 14.14363720641526
SL-16 R/B               
1 23088U 94023B   26045.45728117  .00000294  00000+0  17635-3 0  9990
2 23088  70.9994 119.6806 0004631 307.5095  52.5606 14.15005881642802
SL-16 R/B               
1 23343U 94074B   26045.53829968  .00000570  00000+0  83057-4 0  9994
2 23343  97.7141  77.2903 0005335 304.4898 179.9558 14.79380255683821
SL-16 R/B               
1 23405U 94077B   26045.44795681  .00000329  00000+0  19245-3 0  9999
2 23405  70.9824  41.3837 0004048 232.2403 127.8353 14.15560670612940
ARIANE 40+ R/B          
1 23561U 95021B   26045.18024152  .00000300  00000+0  10976-3 0  9992
2 23561  98.4547 116.9756 0006391 202.9007 177.2235 14.39754814615869
SL-16 R/B               
1 23705U 95058B   26045.52445866  .00000082  00000+0  66439-4 0  9992
2 23705  71.0197 228.8887 0011742 165.2545 194.8923 14.15495590564576
SL-16 R/B               
1 24298U 96051B   26045.44083075  .00000110  00000+0  86002-4 0  9995
2 24298  70.7568 224.4471 0017106 180.9493 179.1597 14.12409058518369
ORBVIEW 2 (SEASTAR)     
1 24883U 97037A   26045.41605263  .00000360  00000+0  14160-3 0  9998
2 24883  98.8525 209.1166 0003126 119.0678 241.0820 14.35476867505135
