CCSDS_OMM_VERS = 2.0
CREATION_DATE  = 
ORIGINATOR     = 

OBJECT_NAME    = SL-16 R/B
OBJECT_ID      = 1993-016B
CENTER_NAME    = EARTH
REF_FRAME      = TEME
TIME_SYSTEM    = UTC
MEAN_ELEMENT_THEORY = SGP/SGP4

EPOCH          = 2026-02-14T00:46:34.980384
MEAN_MOTION    = 14.15301998
ECCENTRICITY   = .00105506
INCLINATION    = 71.0054
RA_OF_ASC_NODE = 264.8717
ARG_OF_PERICENTER = 346.4063
MEAN_ANOMALY   = 13.6774

EPHEMERIS_TYPE = 0
CLASSIFICATION_TYPE = U
NORAD_CAT_ID   = 22566
ELEMENT_SET_NO = 999
REV_AT_EPOCH   = 69882
BSTAR          = -.98500626E-4
MEAN_MOTION_DOT = -.24E-5
MEAN_MOTION_DDOT = 0

CCSDS_OMM_VERS = 2.0
CREATION_DATE  = 
ORIGINATOR     = 

OBJECT_NAME    = COSMOS 2242
OBJECT_ID      = 1993-024A
CENTER_NAME    = EARTH
REF_FRAME      = TEME
TIME_SYSTEM    = UTC
MEAN_ELEMENT_THEORY = SGP/SGP4

EPOCH          = 2026-02-14T03:59:47.936256
MEAN_MOTION    = 14.96452011
ECCENTRICITY   = .00172069
INCLINATION    = 82.5189
RA_OF_ASC_NODE = 289.2171
ARG_OF_PERICENTER = 29.1951
MEAN_ANOMALY   = 331.0229

EPHEMERIS_TYPE = 0
CLASSIFICATION_TYPE = U
NORAD_CAT_ID   = 22626
ELEMENT_SET_NO = 999
REV_AT_EPOCH   = 77687
BSTAR          = .17806459E-3
MEAN_MOTION_DOT = .2051E-4
MEAN_MOTION_DDOT = 0

CCSDS_OMM_VERS = 2.0
CREATION_DATE  = 
ORIGINATOR     = 

OBJECT_NAME    = SL-16 R/B
OBJECT_ID      = 1993-059B
CENTER_NAME    = EARTH
REF_FRAME      = TEME
TIME_SYSTEM    = UTC
MEAN_ELEMENT_THEORY = SGP/SGP4

EPOCH          = 2026-02-14T11:13:02.813088
MEAN_MOTION    = 14.17228055
ECCENTRICITY   = .0019432
INCLINATION    = 70.9890
RA_OF_ASC_NODE = 60.0984
ARG_OF_PERICENTER = 248.5575
MEAN_ANOMALY   = 111.3476

EPHEMERIS_TYPE = 0
CLASSIFICATION_TYPE = U
NORAD_CAT_ID   = 22803
ELEMENT_SET_NO = 999
REV_AT_EPOCH   = 67624
BSTAR          = -.45054E-4
MEAN_MOTION_DOT = -.139E-5
MEAN_MOTION_DDOT = 0

CCSDS_OMM_VERS = 2.0
CREATION_DATE  = 
ORIGINATOR     = 

OBJECT_NAME    = ARIANE 40 R/B
OBJECT_ID      = 1993-061H
CENTER_NAME    = EARTH
REF_FRAME      = TEME
TIME_SYSTEM    = UTC
MEAN_ELEMENT_THEORY = SGP/SGP4

EPOCH          = 2026-02-14T03:58:27.865920
MEAN_MOTION    = 14.32848202
ECCENTRICITY   = .00104587
INCLINATION    = 98.4968
RA_OF_ASC_NODE = 114.5114
ARG_OF_PERICENTER = 0.4039
MEAN_ANOMALY   = 359.7152

EPHEMERIS_TYPE = 0
CLASSIFICATION_TYPE = U
NORAD_CAT_ID   = 22830
ELEMENT_SET_NO = 999
REV_AT_EPOCH   = 69073
BSTAR          = .86746196E-4
MEAN_MOTION_DOT = .194E-5
MEAN_MOTION_DDOT = 0

CCSDS_OMM_VERS = 2.0
CREATION_DATE  = 
ORIGINATOR     = 

OBJECT_NAME    = COSMOS 2278
OBJECT_ID      = 1994-023A
CENTER_NAME    = EARTH
REF_FRAME      = TEME
TIME_SYSTEM    = UTC
MEAN_ELEMENT_THEORY = SGP/SGP4

EPOCH          = 2026-02-14T11:18:11.460672
MEAN_MOTION    = 14.14363720
ECCENTRICITY   = .0006904
INCLINATION    = 71.0503
RA_OF_ASC_NODE = 223.6737
ARG_OF_PERICENTER = 58.4135
MEAN_ANOMALY   = 301.7661

EPHEMERIS_TYPE = 0
CLASSIFICATION_TYPE = U
NORAD_CAT_ID   = 23087
ELEMENT_SET_NO = 999
REV_AT_EPOCH   = 64152
BSTAR          = .59632E-4
MEAN_MOTION_DOT = .67E-6
MEAN_MOTION_DDOT = 0

CCSDS_OMM_VERS = 2.0
CREATION_DATE  = 
ORIGINATOR     = 

OBJECT_NAME    = SL-16 R/B
OBJECT_ID      = 1994-023B
CENTER_NAME    = EARTH
REF_FRAME      = TEME
TIME_SYSTEM    = UTC
MEAN_ELEMENT_THEORY = SGP/SGP4

EPOCH          = 2026-02-14T10:58:29.093088
MEAN_MOTION    = 14.15005881
ECCENTRICITY   = .0004631
INCLINATION    = 70.9994
RA_OF_ASC_NODE = 119.6806
ARG_OF_PERICENTER = 307.5095
MEAN_ANOMALY   = 52.5606

EPHEMERIS_TYPE = 0
CLASSIFICATION_TYPE = U
NORAD_CAT_ID   = 23088
ELEMENT_SET_NO = 999
REV_AT_EPOCH   = 64280
BSTAR          = .17635E-3
MEAN_MOTION_DOT = .294E-5
MEAN_MOTION_DDOT = 0

CCSDS_OMM_VERS = 2.0
CREATION_DATE  = 
ORIGINATOR     = 

OBJECT_NAME    = SL-16 R/B
OBJECT_ID      = 1994-074B
CENTER_NAME    = EARTH
REF_FRAME      = TEME
TIME_SYSTEM    = UTC
MEAN_ELEMENT_THEORY = SGP/SGP4

EPOCH          = 2026-02-14T12:55:09.092352
MEAN_MOTION    = 14.79380255
ECCENTRICITY   = .0005335
INCLINATION    = 97.7141
RA_OF_ASC_NODE = 77.2903
ARG_OF_PERICENTER = 304.4898
MEAN_ANOMALY   = 179.9558

EPHEMERIS_TYPE = 0
CLASSIFICATION_TYPE = U
NORAD_CAT_ID   = 23343
ELEMENT_SET_NO = 999
REV_AT_EPOCH   = 68382
BSTAR          = .83057E-4
MEAN_MOTION_DOT = .57E-5
MEAN_MOTION_DDOT = 0

CCSDS_OMM_VERS = 2.0
CREATION_DATE  = 
ORIGINATOR     = 

OBJECT_NAME    = SL-16 R/B
OBJECT_ID      = 1994-077B
CENTER_NAME    = EARTH
REF_FRAME      = TEME
TIME_SYSTEM    = UTC
MEAN_ELEMENT_THEORY = SGP/SGP4

EPOCH          = 2026-02-14T10:45:03.468384
MEAN_MOTION    = 14.15560670
ECCENTRICITY   = .0004048
INCLINATION    = 70.9824
RA_OF_ASC_NODE = 41.3837
ARG_OF_PERICENTER = 232.2403
MEAN_ANOMALY   = 127.8353

EPHEMERIS_TYPE = 0
CLASSIFICATION_TYPE = U
NORAD_CAT_ID   = 23405
ELEMENT_SET_NO = 999
REV_AT_EPOCH   = 61294
BSTAR          = .19245E-3
MEAN_MOTION_DOT = .329E-5
MEAN_MOTION_DDOT = 0

CCSDS_OMM_VERS = 2.0
CREATION_DATE  = 
ORIGINATOR     = 

OBJECT_NAME    = ARIANE 40+ R/B
OBJECT_ID      = 1995-021B
CENTER_NAME    = EARTH
REF_FRAME      = TEME
TIME_SYSTEM    = UTC
MEAN_ELEMENT_THEORY = SGP/SGP4

EPOCH          = 2026-02-14T04:19:32.867328
MEAN_MOTION    = 14.39754814
ECCENTRICITY   = .00063919
INCLINATION    = 98.4547
RA_OF_ASC_NODE = 116.9756
ARG_OF_PERICENTER = 202.9007
MEAN_ANOMALY   = 177.2235

EPHEMERIS_TYPE = 0
CLASSIFICATION_TYPE = U
NORAD_CAT_ID   = 23561
ELEMENT_SET_NO = 999
REV_AT_EPOCH   = 61586
BSTAR          = .10976268E-3
MEAN_MOTION_DOT = .3E-5
MEAN_MOTION_DDOT = 0

CCSDS_OMM_VERS = 2.0
CREATION_DATE  = 
ORIGINATOR     = 

OBJECT_NAME    = SL-16 R/B
OBJECT_ID      = 1995-058B
CENTER_NAME    = EARTH
REF_FRAME      = TEME
TIME_SYSTEM    = UTC
MEAN_ELEMENT_THEORY = SGP/SGP4

EPOCH          = 2026-02-14T12:35:13.228224
MEAN_MOTION    = 14.15495590
ECCENTRICITY   = .0011742
INCLINATION    = 71.0197
RA_OF_ASC_NODE = 228.8887
ARG_OF_PERICENTER = 165.2545
MEAN_ANOMALY   = 194.8923

EPHEMERIS_TYPE = 0
CLASSIFICATION_TYPE = U
NORAD_CAT_ID   = 23705
ELEMENT_SET_NO = 999
REV_AT_EPOCH   = 56457
BSTAR          = .66439E-4
MEAN_MOTION_DOT = .82E-6
MEAN_MOTION_DDOT = 0

CCSDS_OMM_VERS = 2.0
CREATION_DATE  = 
ORIGINATOR     = 

OBJECT_NAME    = SL-16 R/B
OBJECT_ID      = 1996-051B
CENTER_NAME    = EARTH
REF_FRAME      = TEME
TIME_SYSTEM    = UTC
MEAN_ELEMENT_THEORY = SGP/SGP4

EPOCH          = 2026-02-14T10:34:47.776800
MEAN_MOTION    = 14.12409058
ECCENTRICITY   = .0017106
INCLINATION    = 70.7568
RA_OF_ASC_NODE = 224.4471
ARG_OF_PERICENTER = 180.9493
MEAN_ANOMALY   = 179.1597

EPHEMERIS_TYPE = 0
CLASSIFICATION_TYPE = U
NORAD_CAT_ID   = 24298
ELEMENT_SET_NO = 999
REV_AT_EPOCH   = 51836
BSTAR          = .86002E-4
MEAN_MOTION_DOT = .11E-5
MEAN_MOTION_DDOT = 0

CCSDS_OMM_VERS = 2.0
CREATION_DATE  = 
ORIGINATOR     = 

OBJECT_NAME    = ORBVIEW 2 (SEASTAR)
OBJECT_ID      = 1997-037A
CENTER_NAME    = EARTH
REF_FRAME      = TEME
TIME_SYSTEM    = UTC
MEAN_ELEMENT_THEORY = SGP/SGP4

EPOCH          = 2026-02-14T09:59:06.947232
MEAN_MOTION    = 14.35476867
ECCENTRICITY   = .0003126
INCLINATION    = 98.8525
RA_OF_ASC_NODE = 209.1166
ARG_OF_PERICENTER = 119.0678
MEAN_ANOMALY   = 241.0820

EPHEMERIS_TYPE = 0
CLASSIFICATION_TYPE = U
NORAD_CAT_ID   = 24883
ELEMENT_SET_NO = 999
REV_AT_EPOCH   = 50513
BSTAR          = .1416E-3
MEAN_MOTION_DOT = .36E-5
MEAN_MOTION_DDOT = 0

